NORAD_CAT_ID,OBJECT_NAME,OBJECT_TYPE,EPOCH,MEAN_MOTION,ECCENTRICITY,INCLINATION,RA_OF_ASC_NODE,ARG_OF_PERICENTER,MEAN_ANOMALY,BSTAR,MEAN_MOTION_DOT,MEAN_MOTION_DDOT,TLE_LINE0,TLE_LINE1,TLE_LINE2,SEMIMAJOR_AXIS,PERIOD,APOGEE,PERIGEE,DECAYED
55768.0,STARLINK-5583,PAYLOAD,2024-01-14 11:25:37,14.9832963,0.0002582,70.0002,44.346,261.7414,98.3453,1.2837e-05,6e-07,0.0,0 STARLINK-5583,1 55768U 23028AD  24014.47612531  .00000060  00000-0  12837-4 0  9997,2 55768  70.0002  44.3460 0002582 261.7414  98.3453 14.98329630 48903,6950.194,96.107,573.854,570.264,0.0
55768.0,STARLINK-5583,PAYLOAD,2024-01-15 11:27:37,14.98333143,0.0002735,70.0,41.8206,270.1114,89.9732,6.7587e-05,7.14e-06,0.0,0 STARLINK-5583,1 55768U 23028AD  24015.47752108  .00000714  00000-0  67587-4 0  9991,2 55768  70.0000  41.8206 0002735 270.1114  89.9732 14.98333143 49059,6950.183,96.107,573.949,570.147,0.0
55768.0,STARLINK-5583,PAYLOAD,2024-01-16 11:29:39,14.98325896,0.0002635,70.0004,39.2956,271.6663,88.4194,-3.4944e-05,-5.1e-06,0.0,0 STARLINK-5583,1 55768U 23028AD  24016.47893000 -.00000510  00000-0 -34944-4 0  9996,2 55768  70.0004  39.2956 0002635 271.6663  88.4194 14.98325896 49209,6950.206,96.107,573.902,570.239,0.0
55768.0,STARLINK-5583,PAYLOAD,2024-01-16 13:05:47,14.98329035,0.000267,70.0003,39.1268,272.3714,87.7139,-3.3773e-06,-1.33e-06,0.0,0 STARLINK-5583,1 55768U 23028AD  24016.54568724 -.00000133  00000-0 -33773-5 0  9997,2 55768  70.0003  39.1268 0002670 272.3714  87.7139 14.98329035 49229,6950.196,96.107,573.917,570.205,0.0
55768.0,STARLINK-5583,PAYLOAD,2024-01-17 11:31:40,14.98333062,0.0002632,70.0003,36.77,272.823,87.2628,3.5498e-07,-8.9e-07,0.0,0 STARLINK-5583,1 55768U 23028AD  24017.48032419 -.00000089  00000-0  35498-6 0  9994,2 55768  70.0003  36.7700 0002632 272.8230  87.2628 14.98333062 49356,6950.183,96.107,573.878,570.219,0.0
55768.0,STARLINK-5583,PAYLOAD,2024-01-18 11:33:40,14.98341404,0.0002585,70.0002,34.2445,267.9908,92.0955,-0.00013769,-1.736e-05,0.0,0 STARLINK-5583,1 55768U 23028AD  24018.48172106 -.00001736  00000-0 -13769-3 0  9998,2 55768  70.0002  34.2445 0002585 267.9908  92.0955 14.98341404 49501,6950.158,96.106,573.819,570.226,0.0
55768.0,STARLINK-5583,PAYLOAD,2024-01-19 09:59:33,14.98331423,0.000264,70.0003,31.8883,263.8687,96.2171,6.6728e-06,-1.3e-07,0.0,0 STARLINK-5583,1 55768U 23028AD  24019.41636295 -.00000013  00000-0  66728-5 0  9997,2 55768  70.0003  31.8883 0002640 263.8687  96.2171 14.98331423 49643,6950.188,96.107,573.888,570.219,0.0
55768.0,STARLINK-5583,PAYLOAD,2024-01-20 10:01:34,14.98330407,0.000262,70.0007,29.364,259.4754,100.611,-1.2056e-05,-2.37e-06,0.0,0 STARLINK-5583,1 55768U 23028AD  24020.41776251 -.00000237  00000-0 -12056-4 0  9999,2 55768  70.0007  29.3640 0002620 259.4754 100.6110 14.98330407 49794,6950.192,96.107,573.878,570.236,0.0
55768.0,STARLINK-5583,PAYLOAD,2024-01-21 06:51:19,14.98326736,0.0002615,70.0008,27.1759,257.7024,102.3842,-2.4386e-05,-3.84e-06,0.0,0 STARLINK-5583,1 55768U 23028AD  24021.28564521 -.00000384  00000-0 -24386-4 0  9992,2 55768  70.0008  27.1759 0002615 257.7024 102.3842 14.98326736 49934,6950.203,96.107,573.885,570.251,0.0
55768.0,STARLINK-5583,PAYLOAD,2024-01-21 10:03:35,14.98328446,0.0002733,70.0005,26.8386,266.5348,93.5498,-1.643e-05,-2.89e-06,0.0,0 STARLINK-5583,1 55768U 23028AD  24021.41916439 -.00000289  00000-0 -16430-4 0  9991,2 55768  70.0005  26.8386 0002733 266.5348  93.5498 14.98328446 49940,6950.198,96.107,573.962,570.163,0.0
55768.0,STARLINK-5583,PAYLOAD,2024-01-21 22:52:40,14.98331179,0.0002821,70.0004,25.4919,267.6274,92.4562,1.0778e-05,3.6e-07,0.0,0 STARLINK-5583,1 55768U 23028AD  24021.95324173  .00000036  00000-0  10778-4 0  9995,2 55768  70.0004  25.4919 0002821 267.6274  92.4562 14.98331179 50033,6950.189,96.107,574.015,570.094,0.0
55768.0,STARLINK-5583,PAYLOAD,2024-01-22 06:53:20,14.98329969,0.0002832,70.0003,24.6498,267.5028,92.5806,-1.9459e-06,-1.16e-06,0.0,0 STARLINK-5583,1 55768U 23028AD  24022.28704272 -.00000116  00000-0 -19459-5 0  9991,2 55768  70.0003  24.6498 0002832 267.5028  92.5806 14.98329969 50084,6950.193,96.107,574.026,570.09,0.0
55768.0,STARLINK-5583,PAYLOAD,2024-01-22 10:05:36,14.9833219,0.0002809,70.0004,24.3133,266.8363,93.2475,2.3172e-05,1.84e-06,0.0,0 STARLINK-5583,1 55768U 23028AD  24022.42056045  .00000184  00000-0  23172-4 0  9994,2 55768  70.0004  24.3133 0002809 266.8363  93.2475 14.98332190 50097,6950.186,96.107,574.003,570.099,0.0
55768.0,STARLINK-5583,PAYLOAD,2024-01-23 06:55:21,14.98331388,0.00028,70.0006,22.1249,267.3537,92.7301,4.6843e-05,4.66e-06,0.0,0 STARLINK-5583,1 55768U 23028AD  24023.28843979  .00000466  00000-0  46843-4 0  9992,2 55768  70.0006  22.1249 0002800 267.3537  92.7301 14.98331388 50239,6950.189,96.107,574.0,570.108,0.0
55768.0,STARLINK-5583,PAYLOAD,2024-01-23 10:07:37,14.98333614,0.0002779,70.0007,21.7885,266.6995,93.3846,6.8847e-05,7.29e-06,0.0,0 STARLINK-5583,1 55768U 23028AD  24023.42195745  .00000729  00000-0  68847-4 0  9999,2 55768  70.0007  21.7885 0002779 266.6995  93.3846 14.98333614 50242,6950.182,96.107,573.978,570.115,0.0
55768.0,STARLINK-5583,PAYLOAD,2024-01-24 08:33:30,14.9832849,0.000258,70.0014,19.4334,257.7643,102.3227,-7.4117e-06,-1.81e-06,0.0,0 STARLINK-5583,1 55768U 23028AD  24024.35660167 -.00000181  00000-0 -74117-5 0  9999,2 55768  70.0014  19.4334 0002580 257.7643 102.3227 14.98328490 50389,6950.198,96.107,573.856,570.269,0.0
55768.0,STARLINK-5583,PAYLOAD,2024-01-25 08:35:31,14.98331194,0.0002672,70.0014,16.9091,255.9032,104.183,-3.5704e-05,-5.19e-06,0.0,0 STARLINK-5583,1 55768U 23028AD  24025.35799920 -.00000519  00000-0 -35704-4 0  9993,2 55768  70.0014  16.9091 0002672 255.9032 104.1830 14.98331194 50537,6950.189,96.107,573.911,570.197,0.0
55768.0,STARLINK-5583,PAYLOAD,2024-01-26 08:37:32,14.98327084,0.0002691,70.0016,14.3843,253.5053,106.581,-1.6891e-05,-2.94e-06,0.0,0 STARLINK-5583,1 55768U 23028AD  24026.35940161 -.00000294  00000-0 -16891-4 0  9995,2 55768  70.0016  14.3843 0002691 253.5053 106.5810 14.98327084 50687,6950.202,96.107,573.937,570.197,0.0
55768.0,STARLINK-5583,PAYLOAD,2024-01-27 08:39:33,14.9832531,0.0002668,70.0017,11.8591,254.1274,105.9591,-3.1329e-05,-4.67e-06,0.0,0 STARLINK-5583,1 55768U 23028AD  24027.36080494 -.00000467  00000-0 -31329-4 0  9996,2 55768  70.0017  11.8591 0002668 254.1274 105.9591 14.98325310 50832,6950.207,96.107,573.927,570.218,0.0
55768.0,STARLINK-5583,PAYLOAD,2024-01-28 03:53:09,14.98331158,0.0002845,70.0013,9.8385,265.4525,94.6309,4.4006e-05,4.32e-06,0.0,0 STARLINK-5583,1 55768U 23028AD  24028.16191983  .00000432  00000-0  44006-4 0  9997,2 55768  70.0013   9.8385 0002845 265.4525  94.6309 14.98331158 50958,6950.189,96.107,574.032,570.077,0.0
55768.0,STARLINK-5583,PAYLOAD,2024-01-28 08:41:33,14.98333258,0.0002935,70.0011,9.3323,270.617,89.4653,6.397e-05,6.7e-06,0.0,0 STARLINK-5583,1 55768U 23028AD  24028.36219792  .00000670  00000-0  63970-4 0  9993,2 55768  70.0011   9.3323 0002935 270.6170  89.4653 14.98333258 50998,6950.183,96.107,574.088,570.008,0.0
55768.0,STARLINK-5583,PAYLOAD,2024-01-29 03:55:11,14.98315641,0.0002884,70.0013,7.3127,272.4816,87.6013,0.0002699,3.128e-05,0.0,0 STARLINK-5583,1 55768U 23028AD  24029.16332226  .00003128  00000-0  26990-3 0  9991,2 55768  70.0013   7.3127 0002884 272.4816  87.6013 14.98315641 51100,6950.237,96.108,574.107,570.098,0.0
55768.0,STARLINK-5583,PAYLOAD,2024-01-29 08:43:34,14.98328809,0.0002927,70.0014,6.8078,273.5906,86.4919,0.00016775,1.909e-05,0.0,0 STARLINK-5583,1 55768U 23028AD  24029.36359731  .00001909  00000-0  16775-3 0  9998,2 55768  70.0014   6.8078 0002927 273.5906  86.4919 14.98328809 51135,6950.197,96.107,574.096,570.027,0.0
55768.0,STARLINK-5583,PAYLOAD,2024-01-30 03:57:10,14.98392844,0.0003031,70.0019,4.7872,274.5616,85.5197,-0.0010507,-0.00012628,0.0,0 STARLINK-5583,1 55768U 23028AD  24030.16470982 -.00012628  00000-0 -10507-2 0  9998,2 55768  70.0019   4.7872 0003031 274.5616  85.5197 14.98392844 51256,6949.999,96.103,573.97,569.757,0.0
55768.0,STARLINK-5583,PAYLOAD,2024-01-30 08:45:34,14.98383029,0.0002908,70.0025,4.2825,270.1333,89.9492,-0.00092795,-0.00011163,0.0,0 STARLINK-5583,1 55768U 23028AD  24030.36498685 -.00011163  00000-0 -92795-3 0  9993,2 55768  70.0025   4.2825 0002908 270.1333  89.9492 14.98383029 51291,6950.029,96.104,573.915,569.873,0.0
55768.0,STARLINK-5583,PAYLOAD,2024-01-30 23:10:49,14.98293489,0.0002378,70.0042,2.7669,257.5962,102.4931,0.00035954,4.196e-05,0.0,0 STARLINK-5583,1 55768U 23028AD  24030.96585034  .00004196  00000-0  35954-3 0  9994,2 55768  70.0042   2.7669 0002378 257.5962 102.4931 14.98293489 51386,6950.306,96.109,573.824,570.518,0.0
55768.0,STARLINK-5583,PAYLOAD,2024-01-31 03:59:14,14.98312894,0.0002408,70.0023,2.2644,252.7027,107.3869,-0.00019088,-2.369e-05,0.0,0 STARLINK-5583,1 55768U 23028AD  24031.16613797 -.00002369  00000-0 -19088-3 0  9997,2 55768  70.0023   2.2644 0002408 252.7027 107.3869 14.98312894 51405,6950.246,96.108,573.784,570.437,0.0
55768.0,STARLINK-5583,PAYLOAD,2024-01-31 07:11:30,14.98312856,0.0002425,70.0022,1.9275,255.2076,104.8814,-0.0001883,-2.338e-05,0.0,0 STARLINK-5583,1 55768U 23028AD  24031.29965861 -.00002338  00000-0 -18830-3 0  9993,2 55768  70.0022   1.9275 0002425 255.2076 104.8814 14.98312856 51434,6950.246,96.108,573.796,570.425,0.0
55768.0,STARLINK-5583,PAYLOAD,2024-01-31 20:00:34,14.98321334,0.0002875,70.0019,0.579,289.3099,70.7749,-4.2634e-05,-6.01e-06,0.0,0 STARLINK-5583,1 55768U 23028AD  24031.83373457 -.00000601  00000-0 -42634-4 0  9998,2 55768  70.0019   0.5790 0002875 289.3099  70.7749 14.98321334 51506,6950.22,96.108,574.083,570.087,0.0
55768.0,STARLINK-5583,PAYLOAD,2024-02-01 07:13:30,14.98325296,0.0002349,70.0024,359.4018,252.793,107.2972,3.265e-05,2.97e-06,0.0,0 STARLINK-5583,1 55768U 23028AD  24032.30104991  .00000297  00000-0  32650-4 0  9992,2 55768  70.0024 359.4018 0002349 252.7930 107.2972 14.98325296 51577,6950.207,96.107,573.705,570.44,0.0
